0 PEGASUS DEB
1 24227U 94029LA  13282.53840880  .00000940  00000-0  14688-3 0  7938
2 24227 082.0459 264.5420 0168329 245.8443 225.3483 14.62812194922434
0 PEGASUS DEB
1 24227U 94029LA  13287.18285946  .00000923  00000-0  14392-3 0  7955
2 24227 082.0465 260.0621 0168537 231.0991 203.7157 14.62819030923111
0 PEGASUS DEB
1 24227U 94029LA  13289.38832178  .00001010  00000-0  15780-3 0  7965
2 24227 082.0471 257.9349 0168664 224.1054 298.0602 14.62826549923434
0 PEGASUS DEB
1 24227U 94029LA  13291.82993321  .00001113  00000-0  17406-3 0  7977
2 24227 082.0474 255.5802 0168815 216.3690 196.0548 14.62830348923799
0 PEGASUS DEB
1 24227U 94029LA  13294.16467006  .00001129  00000-0  17638-3 0  7988
2 24227 082.0476 253.3289 0168972 208.9672 251.2676 14.62835923924136
0 PEGASUS DEB
1 24227U 94029LA  13296.21489137  .00001155  00000-0  18046-3 0  7999
2 24227 082.0477 251.3520 0169130 202.4855 248.1808 14.62841235924430
